{
"type": "FeatureCollection",
"name": "quezon_city_buffered",
"crs": { "type": "name", "properties": { "name": "urn:ogc:def:crs:OGC:1.3:CRS84" } },
"features": [
{ "type": "Feature", "properties": { "bbox_west": 120.9896951, "bbox_south": 14.589369, "bbox_east": 121.1337681, "bbox_north": 14.7764137, "place_id": 239075100, "osm_type": "relation", "osm_id": 106569, "lat": 14.6510546, "lon": 121.0486254, "class": "boundary", "type": "administrative", "place_rank": 12, "importance": 0.59529568994743498, "addresstype": "city", "name": "Quezon City", "display_name": "Quezon City, Eastern Manila District, Metro Manila, Philippines" }, "geometry": { "type": "Polygon", "coordinates": [ [ [ 120.972388630663929, 14.632499044348307 ], [ 120.973321228580218, 14.635304888047122 ], [ 120.973097120569705, 14.636129627178862 ], [ 120.972800457229255, 14.637975541577362 ], [ 120.972701113474173, 14.63984141257211 ], [ 120.9728001560199, 14.641707298508962 ], [ 120.973096531355154, 14.643553257078445 ], [ 120.973587076786018, 14.645359558443342 ], [ 120.973710447299595, 14.645734264215436 ], [ 120.973792248613663, 14.645976807220077 ], [ 120.973957211430204, 14.64645451516644 ], [ 120.974378722194629, 14.647431909824968 ], [ 120.974376886297975, 14.647432579370442 ], [ 120.974547252845412, 14.647875388052904 ], [ 120.974724782187025, 14.64831893918107 ], [ 120.974806623461333, 14.648515715633364 ], [ 120.97508108439321, 14.649625771917608 ], [ 120.975742569364598, 14.651432506993856 ], [ 120.97597482999528, 14.651974119376565 ], [ 120.976192497543195, 14.652461422510854 ], [ 120.976442959746706, 14.653000336220869 ], [ 120.976695716566695, 14.653521866493421 ], [ 120.976834298154287, 14.653796374245363 ], [ 120.977005931153229, 14.654127713348185 ], [ 120.977261698845894, 14.654609115925307 ], [ 120.977603090311874, 14.655578074791856 ], [ 120.977880154222262, 14.65631228041639 ], [ 120.978287478947365, 14.65732350163124 ], [ 120.978652383763048, 14.658166045453525 ], [ 120.979327149938584, 14.659620133048644 ], [ 120.979642411948973, 14.660302225377237 ], [ 120.980135458845368, 14.661369018180858 ], [ 120.980332728124026, 14.661795961943575 ], [ 120.980661084543826, 14.662469154976788 ], [ 120.980831013703906, 14.662799770570642 ], [ 120.980840591549963, 14.663636115404087 ], [ 120.98084434071724, 14.663849969974233 ], [ 120.980851422276913, 14.664149881895465 ], [ 120.980853931780587, 14.664492358633733 ], [ 120.980963330132084, 14.666326778962686 ], [ 120.981263504561753, 14.6681409028311 ], [ 120.981751356675304, 14.669915976097377 ], [ 120.982421847628828, 14.671633647841032 ], [ 120.983268050035008, 14.673276160095467 ], [ 120.984281219411727, 14.674826531469614 ], [ 120.985450884441121, 14.676268732758269 ], [ 120.985791173364277, 14.676647052160822 ], [ 120.9861344867046, 14.677018254657177 ], [ 120.986692519811768, 14.67760509972484 ], [ 120.98860457215072, 14.679614807704304 ], [ 120.988738231760834, 14.679753815973603 ], [ 120.992270958153469, 14.683389252602172 ], [ 121.001147245429294, 14.692801193758593 ], [ 121.001055833714432, 14.692986050504285 ], [ 121.0003688740575, 14.694653293684478 ], [ 121.00035046347088, 14.694646448408838 ], [ 121.000244211792548, 14.694917209606547 ], [ 121.000082883935178, 14.695302229688416 ], [ 120.999532386421734, 14.696801780697283 ], [ 120.99911962819732, 14.698342677541559 ], [ 120.998847816352111, 14.699912958120334 ], [ 120.998826302784252, 14.700082554681314 ], [ 120.99869402582884, 14.701778136488638 ], [ 120.998706978331342, 14.702465654428606 ], [ 120.99850942721234, 14.703054275387876 ], [ 120.99605461063905, 14.710118482753902 ], [ 120.995543887414996, 14.71187623034413 ], [ 120.995218067513463, 14.713675177496608 ], [ 120.995080483813624, 14.715496947056035 ], [ 120.995132546482054, 14.717322928296145 ], [ 120.995373728379548, 14.719134467013733 ], [ 120.995801570252965, 14.720913056085125 ], [ 120.996411705667157, 14.722640524539257 ], [ 120.997197905429658, 14.724299223215636 ], [ 120.998152141062135, 14.725872205109795 ], [ 120.999264666676979, 14.727343398562256 ], [ 121.000524118428402, 14.728697771519471 ], [ 121.005227148837506, 14.733267933612476 ], [ 121.005268267369104, 14.733307764682703 ], [ 121.007456236748496, 14.735420586456742 ], [ 121.007613175150894, 14.735570349189926 ], [ 121.009501354402914, 14.737350965260184 ], [ 121.012512320354816, 14.740190492254083 ], [ 121.013829841336872, 14.741560345119762 ], [ 121.014036290511285, 14.741771552198379 ], [ 121.014704777701624, 14.74244448978461 ], [ 121.014725277412367, 14.742465093143359 ], [ 121.017515225124342, 14.745264649918528 ], [ 121.0175812561573, 14.745330570426328 ], [ 121.022993599609478, 14.750706212063461 ], [ 121.025245598006833, 14.752942876354792 ], [ 121.025744691603947, 14.753420230673623 ], [ 121.02772747545896, 14.755246439820956 ], [ 121.029034170529584, 14.756342566300964 ], [ 121.030439761799514, 14.757315967357378 ], [ 121.031932119994678, 14.758158241934481 ], [ 121.033498366491969, 14.758862120493955 ], [ 121.035124984494914, 14.759421527802504 ], [ 121.036797935736629, 14.759831635410082 ], [ 121.038502781701496, 14.76008890336378 ], [ 121.040224808315728, 14.760191110795821 ], [ 121.046171897731483, 14.76027467785911 ], [ 121.046571379241485, 14.760276104646223 ], [ 121.053194606774525, 14.760230343219007 ], [ 121.058676737023433, 14.760256565475563 ], [ 121.058744576176508, 14.760256768586254 ], [ 121.066200490716753, 14.760265719596241 ], [ 121.067107076953207, 14.760276872313536 ], [ 121.067111016733818, 14.760293413944193 ], [ 121.06734304430897, 14.761175323527663 ], [ 121.067396700399783, 14.761374532558905 ], [ 121.067634212693903, 14.762236291772586 ], [ 121.067638881097835, 14.762255450696815 ], [ 121.0681467038942, 14.763961301495158 ], [ 121.068824139862329, 14.765610415477047 ], [ 121.069664651026869, 14.767186867300786 ], [ 121.070660124137262, 14.76867543292434 ], [ 121.071800948897319, 14.770061736666612 ], [ 121.073076110677377, 14.771332390088098 ], [ 121.074473296817132, 14.772475121347219 ], [ 121.075979015494781, 14.773478893780508 ], [ 121.077578726015943, 14.774334012558359 ], [ 121.07925697926359, 14.775032218383343 ], [ 121.080997566951353, 14.775566767323062 ], [ 121.082783678236225, 14.775932496003669 ], [ 121.084598062174564, 14.776125871531601 ], [ 121.084675820791432, 14.776126687875449 ], [ 121.085493702221726, 14.776683266280141 ], [ 121.085871354758879, 14.777143270695341 ], [ 121.087136974752866, 14.778408775078301 ], [ 121.088523487884501, 14.779548060652042 ], [ 121.090017658894737, 14.780550250177319 ], [ 121.091605224033785, 14.78140577508365 ], [ 121.093271027255781, 14.78210646688691 ], [ 121.094999164961777, 14.782645635238971 ], [ 121.096773137905885, 14.783018131861366 ], [ 121.097417514333344, 14.78312167607457 ], [ 121.097853232199768, 14.783231729458656 ], [ 121.099669064229658, 14.783507790949987 ], [ 121.100322739607023, 14.783543451360853 ], [ 121.101271833208571, 14.784486457617753 ], [ 121.10260163784335, 14.78558085925439 ], [ 121.104030959602667, 14.786549256798168 ], [ 121.105547231345483, 14.787383134469962 ], [ 121.107137120808758, 14.788075159228855 ], [ 121.107823363720996, 14.78830151381648 ], [ 121.108523711976389, 14.788830739655962 ], [ 121.109745540055215, 14.789663900114231 ], [ 121.111205864764557, 14.790564099914205 ], [ 121.112745889224016, 14.791328306601851 ], [ 121.114352273492827, 14.791949899702487 ], [ 121.116011102314928, 14.792423494072096 ], [ 121.117708005721582, 14.792744986591231 ], [ 121.119029227858164, 14.792872945224596 ], [ 121.119476378170731, 14.793041708109211 ], [ 121.12120914144603, 14.793513978520032 ], [ 121.122980747651354, 14.79382090141957 ], [ 121.123753360872755, 14.793880639831672 ], [ 121.124585125836134, 14.794083008945563 ], [ 121.126242350198666, 14.794334479485837 ], [ 121.127916136102456, 14.794439479710329 ], [ 121.129592835056343, 14.794397153025741 ], [ 121.129752550294697, 14.794379004348473 ], [ 121.129816040395852, 14.794388411743775 ], [ 121.131639925171058, 14.794482136077503 ], [ 121.133136949042708, 14.794487350985147 ], [ 121.135003078255934, 14.794402441856759 ], [ 121.136851003444534, 14.794135586140623 ], [ 121.138662030756961, 14.793689482842273 ], [ 121.140417839771388, 14.79306864426645 ], [ 121.14210066895852, 14.792279350357509 ], [ 121.143693495474352, 14.791329585145062 ], [ 121.145180207457983, 14.790228955939371 ], [ 121.146545767086565, 14.788988596095862 ], [ 121.147776362733737, 14.787621052335302 ], [ 121.14885954869051, 14.786140157762254 ], [ 121.149784371033064, 14.784560891869926 ], [ 121.150082334494982, 14.78390693975976 ], [ 121.150671140881983, 14.782793651783816 ], [ 121.151328293360251, 14.781191842696179 ], [ 121.15182552786176, 14.779536378125501 ], [ 121.152158319679259, 14.777842334147451 ], [ 121.152323641947092, 14.776125137857806 ], [ 121.152319993075025, 14.774400426852369 ], [ 121.152147410282311, 14.772683906801888 ], [ 121.151807469113734, 14.770991208419916 ], [ 121.151303268947146, 14.769337745126798 ], [ 121.150639404629999, 14.76773857270571 ], [ 121.15022887123439, 14.766970058025278 ], [ 121.149971580933311, 14.766115471051075 ], [ 121.149326377900579, 14.764538662212365 ], [ 121.148532031932731, 14.763027694031033 ], [ 121.148396818202102, 14.762797801978429 ], [ 121.147351863323536, 14.761217762578525 ], [ 121.146143995883463, 14.759751823324468 ], [ 121.144786271674192, 14.758415825141975 ], [ 121.14353309646215, 14.757415556702211 ], [ 121.143523476978245, 14.757353073342792 ], [ 121.143088072213118, 14.755660468058435 ], [ 121.14248698237266, 14.754016604960135 ], [ 121.141725812945808, 14.752436803496394 ], [ 121.140811660823744, 14.750935785745353 ], [ 121.139753048047226, 14.749527539254251 ], [ 121.139166037897382, 14.748886835693202 ], [ 121.138838158535336, 14.748391440365166 ], [ 121.138699095303437, 14.747823083951078 ], [ 121.138180671095995, 14.746092384991231 ], [ 121.137487668845438, 14.744420552288698 ], [ 121.136868966283743, 14.743273026992251 ], [ 121.1368719530128, 14.743170907242634 ], [ 121.136760937997494, 14.741496291305367 ], [ 121.136490807587549, 14.739838913403039 ], [ 121.136425614229793, 14.739590633000359 ], [ 121.136336526393336, 14.73813513259825 ], [ 121.136580559048696, 14.737395512788602 ], [ 121.136967880666134, 14.735636895827254 ], [ 121.137173679741949, 14.733849521611541 ], [ 121.137195922617266, 14.732051090714819 ], [ 121.13703874467906, 14.730307675826515 ], [ 121.137038093139765, 14.729912716323092 ], [ 121.136888988982804, 14.728313393137087 ], [ 121.136769742742175, 14.727458484958103 ], [ 121.135503200019386, 14.71837661656307 ], [ 121.132329768070676, 14.695618772799959 ], [ 121.132007278978605, 14.693919886609248 ], [ 121.131519627023096, 14.692258732995514 ], [ 121.1308712715323, 14.690650489360213 ], [ 121.130258147841928, 14.689474341889516 ], [ 121.130366806265243, 14.688963594563043 ], [ 121.130656340205249, 14.687136253004097 ], [ 121.130752565868505, 14.685289678362752 ], [ 121.13065448103265, 14.68344319617758 ], [ 121.130585825829897, 14.682795595165787 ], [ 121.130279650624018, 14.680899911675967 ], [ 121.129768737323559, 14.679046512769961 ], [ 121.129514076811958, 14.678404302439914 ], [ 121.129446254385826, 14.67818544887481 ], [ 121.128694996287152, 14.676192782052226 ], [ 121.127708948127179, 14.674299595354109 ], [ 121.126206701438463, 14.671792182997821 ], [ 121.126139986151998, 14.671681728123652 ], [ 121.124855964661933, 14.66957300310168 ], [ 121.124819443030347, 14.669513285729398 ], [ 121.12389435699825, 14.668007239766212 ], [ 121.12297377027383, 14.666650949730053 ], [ 121.121931736070067, 14.665380669663573 ], [ 121.120589893560236, 14.663887846333507 ], [ 121.119225686938194, 14.662522524332182 ], [ 121.118646508550242, 14.66205355679547 ], [ 121.118540800093868, 14.661916348505807 ], [ 121.116970159793155, 14.66013221592444 ], [ 121.116527852192689, 14.659691340624358 ], [ 121.116051157006936, 14.659278563709854 ], [ 121.115512529054413, 14.657843773263878 ], [ 121.115268288161602, 14.6572766865951 ], [ 121.115053128906155, 14.656796739188408 ], [ 121.114923409553413, 14.656518446429462 ], [ 121.114915393618219, 14.656521987906853 ], [ 121.114510579990679, 14.655628313262827 ], [ 121.113591537161511, 14.654050123657509 ], [ 121.112514628933454, 14.652569580529764 ], [ 121.111290707718027, 14.651201599153991 ], [ 121.109932106282344, 14.649959960481915 ], [ 121.108452513443183, 14.64885717237736 ], [ 121.108112095319939, 14.648652617674617 ], [ 121.108195717894361, 14.647868856250955 ], [ 121.108207774546997, 14.646120179043148 ], [ 121.108046198979636, 14.644378552426771 ], [ 121.107712507917157, 14.642660280696283 ], [ 121.107209829211826, 14.640981449118533 ], [ 121.106542872411922, 14.639357773361111 ], [ 121.105717884534016, 14.637804452394928 ], [ 121.104742591457693, 14.636336026247164 ], [ 121.10362612549622, 14.634966239934759 ], [ 121.102378939824689, 14.633707914850424 ], [ 121.101635492754326, 14.633090248902425 ], [ 121.100952279973512, 14.632330604989887 ], [ 121.099603770014667, 14.631102367125294 ], [ 121.099183469481929, 14.630789621954273 ], [ 121.098867488245872, 14.629939017807521 ], [ 121.09809319205921, 14.628354773277117 ], [ 121.097164796022824, 14.626851091279766 ], [ 121.096763441393477, 14.626324442445391 ], [ 121.096673642806607, 14.626136162659874 ], [ 121.096373107297651, 14.625578679860997 ], [ 121.095926386736338, 14.624843493481766 ], [ 121.096348342701674, 14.623854397344811 ], [ 121.09662951735325, 14.622958807541035 ], [ 121.097538040846246, 14.622321925663966 ], [ 121.097876499767608, 14.622078946496533 ], [ 121.098174311781435, 14.621860033467849 ], [ 121.099776364455238, 14.620537409285495 ], [ 121.101214681848987, 14.61904700224623 ], [ 121.101590179352669, 14.618610878723526 ], [ 121.102008160446331, 14.61810735922424 ], [ 121.102265656191307, 14.617785542319204 ], [ 121.103075674026783, 14.616691274984602 ], [ 121.103475258006142, 14.616106646208451 ], [ 121.10419838344508, 14.614957998737056 ], [ 121.104831619424218, 14.613760086577232 ], [ 121.105162762159352, 14.613071741986294 ], [ 121.10535627074951, 14.612669390895849 ], [ 121.10593169447813, 14.611735245910683 ], [ 121.106932242544445, 14.609873450821969 ], [ 121.107704097903024, 14.607911149647027 ], [ 121.108116015028614, 14.606648607985813 ], [ 121.10856552817171, 14.605007125188703 ], [ 121.108854780305251, 14.603331793300454 ], [ 121.108981219278547, 14.601637414984063 ], [ 121.10900793436744, 14.600618402583148 ], [ 121.108952030833848, 14.598681665200152 ], [ 121.10868355746797, 14.596761883548945 ], [ 121.108205605048695, 14.594881119171196 ], [ 121.107523671326348, 14.593060984649725 ], [ 121.107312737025254, 14.592579796143879 ], [ 121.106614679970477, 14.591161631906649 ], [ 121.105792680725799, 14.589807931664243 ], [ 121.105535060778493, 14.589422946649456 ], [ 121.10435317931902, 14.587849333389057 ], [ 121.10300414346986, 14.586408847893297 ], [ 121.101503651900757, 14.58511824908814 ], [ 121.100574058674567, 14.584478026152022 ], [ 121.100004309155878, 14.583045212082457 ], [ 121.09917225645907, 14.581445034924473 ], [ 121.098181454511348, 14.579933054467913 ], [ 121.097041663874407, 14.578524160204225 ], [ 121.095764111677212, 14.577232226112759 ], [ 121.094361380981184, 14.576069974094555 ], [ 121.092847286824423, 14.575048848758897 ], [ 121.091236740166963, 14.57417890479285 ], [ 121.089545601076907, 14.573468708019506 ], [ 121.087790522601381, 14.572925251116278 ], [ 121.085988786857456, 14.572553884820001 ], [ 121.084158134953157, 14.572358265293603 ], [ 121.082316592408489, 14.572340318170063 ], [ 121.080482291790247, 14.572500219625796 ], [ 121.078673294300813, 14.572836394668373 ], [ 121.076907412071421, 14.573345532654503 ], [ 121.076505941910781, 14.573482725586103 ], [ 121.075838370521751, 14.573724964195048 ], [ 121.073469535220468, 14.57463531546437 ], [ 121.073375980417467, 14.5746655196919 ], [ 121.072137645845984, 14.574323217567695 ], [ 121.065987249080081, 14.572969525773461 ], [ 121.064559869852204, 14.572595241841363 ], [ 121.063266573816989, 14.572242522655021 ], [ 121.063157954727274, 14.572213244868053 ], [ 121.062117024878219, 14.571935975664937 ], [ 121.060367407618571, 14.571557317869837 ], [ 121.05858844990955, 14.571344802497503 ], [ 121.056796742760966, 14.571300411018731 ], [ 121.055008995900664, 14.571424556933341 ], [ 121.053241882049463, 14.57171608193525 ], [ 121.05151188154386, 14.572172266725985 ], [ 121.049835128749862, 14.572788856375398 ], [ 121.048227261695516, 14.573560099993168 ], [ 121.046703276319505, 14.574478804341883 ], [ 121.045277386690643, 14.575536400892764 ], [ 121.043962892498271, 14.576723025700099 ], [ 121.042772055046512, 14.578027611351478 ], [ 121.041715982907107, 14.579437990138407 ], [ 121.040804528295737, 14.580941007487562 ], [ 121.040046195139197, 14.582522644597169 ], [ 121.039448059691495, 14.584168149137442 ], [ 121.039015704441383, 14.585862172798437 ], [ 121.038753165931482, 14.587588914404792 ], [ 121.038717081093623, 14.588285823833022 ], [ 121.038064764272434, 14.588243907115116 ], [ 121.036285850268158, 14.588295972971581 ], [ 121.034520236566465, 14.588513734656326 ], [ 121.032784157211637, 14.58889518944626 ], [ 121.03178327030281, 14.589215862153583 ], [ 121.031446076417737, 14.588915038755077 ], [ 121.029999334666641, 14.587857014395228 ], [ 121.028453692089357, 14.586941205503203 ], [ 121.02682383788472, 14.586176314415727 ], [ 121.025125260904304, 14.585569609188957 ], [ 121.023374102520691, 14.585126854590497 ], [ 121.021587003318785, 14.584852257371976 ], [ 121.019780945063147, 14.584748426339976 ], [ 121.017973089438499, 14.584816347602789 ], [ 121.016180615090533, 14.58505537522667 ], [ 121.014420554510323, 14.585463237389288 ], [ 121.012709632306382, 14.586036057971365 ], [ 121.011064106395679, 14.586768393381355 ], [ 121.009499613617038, 14.587653284263643 ], [ 121.009292024264994, 14.587784276481521 ], [ 121.007454751101491, 14.589106807026614 ], [ 121.006750245891226, 14.589682480080125 ], [ 121.005888092306847, 14.590367293589424 ], [ 121.005511646516155, 14.590696343574875 ], [ 121.00486810870288, 14.591192494315443 ], [ 121.003911678636968, 14.591925090251076 ], [ 121.002620141911649, 14.59291442592547 ], [ 120.999181334746581, 14.595466254242227 ], [ 120.998782417902447, 14.595770744046115 ], [ 120.997821676598903, 14.596524913111363 ], [ 120.996847825358444, 14.597252076351529 ], [ 120.996601580708273, 14.597439167861154 ], [ 120.995407924785297, 14.598361913396788 ], [ 120.994585842621419, 14.59903610236314 ], [ 120.993692689549647, 14.599812709082853 ], [ 120.992919903884584, 14.600345636278021 ], [ 120.992401198247521, 14.600716658552725 ], [ 120.989759867118053, 14.602675480295455 ], [ 120.986728217743362, 14.604898596298746 ], [ 120.985352957108802, 14.606012103879847 ], [ 120.985068946217908, 14.606291248110804 ], [ 120.984826148392443, 14.606479161096164 ], [ 120.984712759893426, 14.606567023374293 ], [ 120.984509135991175, 14.606724537285087 ], [ 120.984388154854372, 14.606818213981391 ], [ 120.983822619972372, 14.607255947645779 ], [ 120.983435862537704, 14.607555300077493 ], [ 120.982276739811624, 14.608450001822392 ], [ 120.981084937387422, 14.609369829195495 ], [ 120.980266583920312, 14.61000143730263 ], [ 120.979965765325488, 14.610233657018357 ], [ 120.979798343767527, 14.610362834624684 ], [ 120.979035685519364, 14.610949565565996 ], [ 120.978959328493673, 14.611011054769358 ], [ 120.978959130064013, 14.611010811780938 ], [ 120.978809051128138, 14.611127023704192 ], [ 120.978449488894796, 14.611404736989654 ], [ 120.977657382790085, 14.61205234605624 ], [ 120.977502586997147, 14.612186238262963 ], [ 120.976278682674689, 14.613347301733734 ], [ 120.976219083138986, 14.613409298266808 ], [ 120.974894641826893, 14.614950484935928 ], [ 120.973754093539029, 14.616625322026771 ], [ 120.973706990681876, 14.616703618367049 ], [ 120.972750291027637, 14.618522438216466 ], [ 120.972010561422877, 14.620434793937745 ], [ 120.97199115745768, 14.620495091929472 ], [ 120.971550700348047, 14.622127333492664 ], [ 120.971268523236191, 14.623792463442806 ], [ 120.971264220387269, 14.6238281627319 ], [ 120.971257466638022, 14.623884972574732 ], [ 120.971254664726899, 14.623908872104556 ], [ 120.971135148274143, 14.625864909671765 ], [ 120.97113474186574, 14.625941208819111 ], [ 120.971224896306168, 14.627816498593489 ], [ 120.971514362427726, 14.629672563820504 ], [ 120.972000021690107, 14.631489375795802 ], [ 120.972388630663929, 14.632499044348307 ] ] ] } }
]
}
